#aV2010  7  3  0  0   .00000000      96 DD+AD WGS84 FIT  NGA
## 1590 518400.00000000   900.00000000 55380  .0000000000000
+   31     1  2  3  4  5  6  7  8  9 10 11 12 13 14 15 16 17
+         18 19 20 21 22 23 24 26 27 28 29 30 31 32  0  0  0
+          0  0  0  0  0  0  0  0  0  0  0  0  0  0  0  0  0
+          0  0  0  0  0  0  0  0  0  0  0  0  0  0  0  0  0
+          0  0  0  0  0  0  0  0  0  0  0  0  0  0  0  0  0
++         0  0  0  0  0  0  0  0  0  0  0  0  0  0  0  0  0
++         0  0  0  0  0  0  0  0  0  0  0  0  0  0  0  0  0
++         0  0  0  0  0  0  0  0  0  0  0  0  0  0  0  0  0
++         0  0  0  0  0  0  0  0  0  0  0  0  0  0  0  0  0
++         0  0  0  0  0  0  0  0  0  0  0  0  0  0  0  0  0
%c cc cc ccc ccc cccc cccc cccc cccc ccccc ccccc ccccc ccccc
%c cc cc ccc ccc cccc cccc cccc cccc ccccc ccccc ccccc ccccc
%f  0.0000000  0.000000000  0.00000000000  0.000000000000000
%f  0.0000000  0.000000000  0.00000000000  0.000000000000000
%i    0    0    0    0      0      0      0      0         0
%i    0    0    0    0      0      0      0      0         0
/*      NGA, ST. LOUIS,MO.                                  
/*   EPHEMERIS COMPUTED FROM  3 DAYS OF DATA                
/* CCCCCCCCCCCCCCCCCCCCCCCCCCCCCCCCCCCCCCCCCCCCCCCCCCCCCCCCC
/* CCCCCCCCCCCCCCCCCCCCCCCCCCCCCCCCCCCCCCCCCCCCCCCCCCCCCCCCC
*  2010  7  3  1 30   .00000000                                                 
P  1   5440.095999  14898.698902 -21417.966821   -137.005036                    
V  1 -20733.532822  17146.898623   6843.617612      -.039849                    
P  2 -13706.267817 -18834.522175 -13186.992559    269.672265                    
V  2   -951.496841 -16747.978044  24472.938884       .031468                    
P  3  23902.320924  10267.049962  -6564.529382    576.419289                    
V  3  -8357.071481   1584.339014 -29294.376372       .051878                    
P  4  -6039.964480 -25617.719330  -1691.694842    116.695457                    
V  4   3392.980912  -2641.159626  31386.743241       .080737                    
P  5 -15886.731128  -5421.622433 -20616.923602    -11.166430                    
V  5  19191.527718 -17762.118960 -10040.499802      -.027867                    
P  6  20875.757802  13438.185517  -9474.431307    587.008698                    
V  6 -12676.808103   -413.690318 -27835.839488      -.136976                    
P  7   7557.812720 -19638.565768 -16111.413124     -1.544621                    
V  7   5472.707957  19814.655038 -21774.660855      -.001582                    
P  8    776.423069 -25647.981369  -5658.497088      5.999507                    
V  8   2972.085410   6960.571129 -31730.425639       .001645                    
P  9 -14800.727897   -304.882966  21508.977697     16.008575                    
V  9  -5748.356639 -27988.586657  -4213.049078       .022330                    
P 10  -6334.488374 -14523.642485 -21458.442660    -46.060004                    
V 10  21193.923222 -16567.895827   5344.039062      -.009428                    
P 11  15659.797292  -5690.124977  20428.293950    -73.033983                    
V 11  10972.085648  24543.074371  -1187.928637      -.025496                    
P 12 -22437.699304  10043.408236   9896.116212    -97.712361                    
V 12   8100.582292  -9850.264815  28634.583244       .040318                    
P 13  14704.020806  -8325.999961 -20643.749181    302.378253                    
V 13  23438.531507  10802.639803  12382.829740      -.006413                    
P 14   6227.961266  16716.444509  19864.127107     63.609121                    
V 14 -23291.920967  -8575.164316  14489.791697       .041250                    
P 15 -25736.945765  -5353.834453   4244.393940   -246.093099                    
V 15  -4177.870428  -4428.254674 -30904.566971       .062873                    
P 16  11415.398980   9889.966068 -21830.530047    -85.973748                    
V 16 -21466.939127  17578.430379  -2983.092032      -.036403                    
P 17  -3869.032542 -16730.151303  20422.823911    159.889936                    
V 17  24303.399577   8222.363555  11190.751686       .019673                    
P 18 -15981.850874  19840.163380   7044.737302     78.413835                    
V 18  -9041.692795   2719.755729 -29712.360649       .023568                    
P 19  25235.723359   6924.193557   5480.180562    -46.724939                    
V 19   5248.959907   5105.962516 -30470.823481      -.028549                    
P 20  22095.005525 -12150.896589   8128.433786     53.858906                    
V 20  -5497.970782   9617.121203  28896.928163      -.005088                    
P 21  -5749.139027  22047.558967 -12763.820478    -71.243834                    
V 21  -6418.269266 -16213.931932 -25086.198004      -.026606                    
P 22  -5788.849928  20238.806467  16307.295082    168.373175                    
V 22 -17409.804064  11109.757953 -20270.276521      -.007975                    
P 23  22188.961961  -2707.493924 -14615.585725    364.604759                    
V 23  16707.577104   7836.404965  23629.831125      -.015714                    
P 24   6443.358707  25601.621770   4107.389969    301.182242                    
V 24  -2206.784587   5427.070702 -30749.193302       .031925                    
P 26 -25104.697072  -8628.383565   2934.871075    -75.266834                    
V 26  -3391.024899  -3159.056161 -31848.117975      -.059259                    
P 27 -15969.784229  -4650.386867  21426.452649    166.560344                    
V 27  -5568.404852 -24947.655111  -9714.655835       .034855                    
P 28   8398.007131 -20171.561738  15373.401295    -11.762870                    
V 28  15810.289942 -10279.099158 -23119.300243       .010793                    
P 29 -15402.232770   8788.063680 -19669.321934    131.804516                    
V 29 -23046.805849 -10238.406240  13450.474711       .026669                    
P 30 -18910.728856  18604.986828   -891.133157    257.204099                    
V 30  -2519.185157  -1727.870794  31673.314069       .033376                    
P 31   7205.482488  25162.002143  -3716.471694    -27.082416                    
V 31  -1492.855267   5349.056756  31762.696464       .025128                    
P 32  22160.162351  -3640.480606  14243.902924    -29.122819                    
V 32 -12974.391155  12202.539075  24209.927172      -.085707                    
EOF
